IRIDIUM 171             
1 43929U 19002H   24073.45091489  .00000187  00000+0  59823-4 0  9991
2 43929  86.4024 338.8950 0002303  83.2140 276.9318 14.34217990270606
IRIDIUM 170             
1 43930U 19002J   24073.22125275  .00001237  00000+0  19205-3 0  9995
2 43930  86.6142 338.8262 0002709  83.7427 276.4099 14.72310255277732
IRIDIUM 167             
1 43931U 19002K   24074.49109922  .00000213  00000+0  69036-4 0  9998
2 43931  86.4014 338.2611 0002258  83.2644 276.8808 14.34218189270754
IRIDIUM 181             
1 56726U 23068S   24074.28181746  .00000573  00000+0  16336-3 0  9995
2 56726  86.8667  27.4291 0002970  83.9773 276.1767 14.43614270 43442
IRIDIUM 177             
1 56727U 23068T   24074.17724771  .00002165  00000+0  28117-3 0  9994
2 56727  86.2032   0.4636 0002718  88.3079 271.8453 14.80263334 44329
IRIDIUM 174             
1 56728U 23068U   24074.17182688  .00002159  00000+0  28041-3 0  9999
2 56728  86.2039   0.5621 0002652  90.3910 269.7615 14.80262947 44321
IRIDIUM 178             
1 56729U 23068V   24073.96363511  .00002101  00000+0  27281-3 0  9994
2 56729  86.5836  13.5985 0002576  90.8351 269.3166 14.80262742 44292
IRIDIUM 179             
1 56730U 23068W   24074.22866080  .00000547  00000+0  68474-4 0  9997
2 56730  86.6832  16.4223 0002453 101.3132 258.8366 14.80235399 44335
